[{"OBJECT_NAME":"GONETS-M 12","OBJECT_ID":"2015-020B","EPOCH":"2026-03-03T05:00:51.789600","MEAN_MOTION":12.42888211,"ECCENTRICITY":0.0014475,"INCLINATION":82.4852,"RA_OF_ASC_NODE":98.1328,"ARG_OF_PERICENTER":213.7694,"MEAN_ANOMALY":146.2465,"EPHEMERIS_TYPE":0,"CLASSIFICATION_TYPE":"U","NORAD_CAT_ID":40553,"ELEMENT_SET_NO":999,"REV_AT_EPOCH":49556,"BSTAR":0.00061957,"MEAN_MOTION_DOT":9.6e-7,"MEAN_MOTION_DDOT":0},{"OBJECT_NAME":"GONETS-M 13","OBJECT_ID":"2015-020C","EPOCH":"2026-03-03T04:20:06.349920","MEAN_MOTION":12.42865606,"ECCENTRICITY":0.0013373,"INCLINATION":82.4815,"RA_OF_ASC_NODE":96.7965,"ARG_OF_PERICENTER":196.2106,"MEAN_ANOMALY":163.8547,"EPHEMERIS_TYPE":0,"CLASSIFICATION_TYPE":"U","NORAD_CAT_ID":40554,"ELEMENT_SET_NO":999,"REV_AT_EPOCH":49553,"BSTAR":-0.013547,"MEAN_MOTION_DOT":-1.866e-5,"MEAN_MOTION_DDOT":0},{"OBJECT_NAME":"DMC3-FM1","OBJECT_ID":"2015-032A","EPOCH":"2026-03-03T04:40:49.562976","MEAN_MOTION":14.85602509,"ECCENTRICITY":0.0006835,"INCLINATION":97.6629,"RA_OF_ASC_NODE":291.4336,"ARG_OF_PERICENTER":51.3141,"MEAN_ANOMALY":308.8685,"EPHEMERIS_TYPE":0,"CLASSIFICATION_TYPE":"U","NORAD_CAT_ID":40715,"ELEMENT_SET_NO":999,"REV_AT_EPOCH":57417,"BSTAR":0.00017668,"MEAN_MOTION_DOT":1.478e-5,"MEAN_MOTION_DDOT":0},{"OBJECT_NAME":"DMC3-FM2","OBJECT_ID":"2015-032B","EPOCH":"2026-03-03T03:36:01.173312","MEAN_MOTION":14.85605565,"ECCENTRICITY":0.0007473,"INCLINATION":97.6687,"RA_OF_ASC_NODE":292.8911,"ARG_OF_PERICENTER":55.0097,"MEAN_ANOMALY":305.182,"EPHEMERIS_TYPE":0,"CLASSIFICATION_TYPE":"U","NORAD_CAT_ID":40716,"ELEMENT_SET_NO":999,"REV_AT_EPOCH":57416,"BSTAR":0.0001211,"MEAN_MOTION_DOT":9.97e-6,"MEAN_MOTION_DDOT":0},{"OBJECT_NAME":"DMC3-FM3","OBJECT_ID":"2015-032C","EPOCH":"2026-03-03T04:09:11.722176","MEAN_MOTION":14.8556612,"ECCENTRICITY":0.0006754,"INCLINATION":97.6739,"RA_OF_ASC_NODE":294.5974,"ARG_OF_PERICENTER":55.7156,"MEAN_ANOMALY":304.4698,"EPHEMERIS_TYPE":0,"CLASSIFICATION_TYPE":"U","NORAD_CAT_ID":40717,"ELEMENT_SET_NO":999,"REV_AT_EPOCH":57417,"BSTAR":5.2025e-5,"MEAN_MOTION_DOT":3.98e-6,"MEAN_MOTION_DDOT":0},{"OBJECT_NAME":"CARBONITE 1 (CBNT-1)","OBJECT_ID":"2015-032D","EPOCH":"2026-03-03T03:28:52.023648","MEAN_MOTION":14.83178887,"ECCENTRICITY":0.0013242,"INCLINATION":97.645,"RA_OF_ASC_NODE":244.6939,"ARG_OF_PERICENTER":284.4089,"MEAN_ANOMALY":75.5655,"EPHEMERIS_TYPE":0,"CLASSIFICATION_TYPE":"U","NORAD_CAT_ID":40718,"ELEMENT_SET_NO":999,"REV_AT_EPOCH":57362,"BSTAR":0.00016014,"MEAN_MOTION_DOT":1.258e-5,"MEAN_MOTION_DDOT":0},{"OBJECT_NAME":"DEORBITSAIL","OBJECT_ID":"2015-032E","EPOCH":"2026-03-03T02:35:39.306048","MEAN_MOTION":15.02133414,"ECCENTRICITY":0.0011564,"INCLINATION":97.6003,"RA_OF_ASC_NODE":280.9912,"ARG_OF_PERICENTER":231.9914,"MEAN_ANOMALY":128.0267,"EPHEMERIS_TYPE":0,"CLASSIFICATION_TYPE":"U","NORAD_CAT_ID":40719,"ELEMENT_SET_NO":999,"REV_AT_EPOCH":57531,"BSTAR":0.00074218,"MEAN_MOTION_DOT":9.721e-5,"MEAN_MOTION_DDOT":0},{"OBJECT_NAME":"2015-049G","OBJECT_ID":"2015-049G","EPOCH":"2026-03-03T02:57:16.677216","MEAN_MOTION":15.58613001,"ECCENTRICITY":0.0004456,"INCLINATION":97.4728,"RA_OF_ASC_NODE":100.3676,"ARG_OF_PERICENTER":233.8701,"MEAN_ANOMALY":126.2143,"EPHEMERIS_TYPE":0,"CLASSIFICATION_TYPE":"U","NORAD_CAT_ID":40905,"ELEMENT_SET_NO":999,"REV_AT_EPOCH":57988,"BSTAR":0.00047391,"MEAN_MOTION_DOT":0.00036334,"MEAN_MOTION_DDOT":0},{"OBJECT_NAME":"LILACSAT-2","OBJECT_ID":"2015-049K","EPOCH":"2026-03-03T04:18:25.826112","MEAN_MOTION":15.47735618,"ECCENTRICITY":0.0005582,"INCLINATION":97.4816,"RA_OF_ASC_NODE":95.1786,"ARG_OF_PERICENTER":278.2575,"MEAN_ANOMALY":81.8042,"EPHEMERIS_TYPE":0,"CLASSIFICATION_TYPE":"U","NORAD_CAT_ID":40908,"ELEMENT_SET_NO":999,"REV_AT_EPOCH":57933,"BSTAR":0.00038164,"MEAN_MOTION_DOT":0.00019701,"MEAN_MOTION_DDOT":0},{"OBJECT_NAME":"COSMOS 2507 (RODNIK-S 13)","OBJECT_ID":"2015-050A","EPOCH":"2026-03-03T05:17:59.728416","MEAN_MOTION":12.42923181,"ECCENTRICITY":0.0009451,"INCLINATION":82.4958,"RA_OF_ASC_NODE":145.648,"ARG_OF_PERICENTER":213.1609,"MEAN_ANOMALY":146.8879,"EPHEMERIS_TYPE":0,"CLASSIFICATION_TYPE":"U","NORAD_CAT_ID":40920,"ELEMENT_SET_NO":999,"REV_AT_EPOCH":47369,"BSTAR":0.00082975,"MEAN_MOTION_DOT":1.25e-6,"MEAN_MOTION_DDOT":0},{"OBJECT_NAME":"COSMOS 2508 (RODNIK-S 14)","OBJECT_ID":"2015-050B","EPOCH":"2026-03-03T04:11:36.894048","MEAN_MOTION":12.42910129,"ECCENTRICITY":0.0013116,"INCLINATION":82.4909,"RA_OF_ASC_NODE":144.2229,"ARG_OF_PERICENTER":251.2473,"MEAN_ANOMALY":108.7183,"EPHEMERIS_TYPE":0,"CLASSIFICATION_TYPE":"U","NORAD_CAT_ID":40921,"ELEMENT_SET_NO":999,"REV_AT_EPOCH":47367,"BSTAR":0.00083839,"MEAN_MOTION_DOT":1.26e-6,"MEAN_MOTION_DDOT":0},{"OBJECT_NAME":"COSMOS 2509 (RODNIK-S 15)","OBJECT_ID":"2015-050C","EPOCH":"2026-03-03T04:37:38.674272","MEAN_MOTION":12.42930505,"ECCENTRICITY":0.0013271,"INCLINATION":82.4915,"RA_OF_ASC_NODE":144.3036,"ARG_OF_PERICENTER":271.42,"MEAN_ANOMALY":88.5359,"EPHEMERIS_TYPE":0,"CLASSIFICATION_TYPE":"U","NORAD_CAT_ID":40922,"ELEMENT_SET_NO":999,"REV_AT_EPOCH":47371,"BSTAR":0.0010025,"MEAN_MOTION_DOT":1.49e-6,"MEAN_MOTION_DDOT":0},{"OBJECT_NAME":"LQSAT","OBJECT_ID":"2015-057A","EPOCH":"2026-03-03T05:30:33.652224","MEAN_MOTION":14.76622366,"ECCENTRICITY":0.0015522,"INCLINATION":97.6652,"RA_OF_ASC_NODE":60.8816,"ARG_OF_PERICENTER":255.9673,"MEAN_ANOMALY":103.9812,"EPHEMERIS_TYPE":0,"CLASSIFICATION_TYPE":"U","NORAD_CAT_ID":40958,"ELEMENT_SET_NO":999,"REV_AT_EPOCH":55967,"BSTAR":0.00018288,"MEAN_MOTION_DOT":1.231e-5,"MEAN_MOTION_DDOT":0},{"OBJECT_NAME":"LINGQIAO VIDEO A","OBJECT_ID":"2015-057B","EPOCH":"2026-03-03T05:25:19.208064","MEAN_MOTION":14.77225734,"ECCENTRICITY":0.0015241,"INCLINATION":97.6599,"RA_OF_ASC_NODE":62.283,"ARG_OF_PERICENTER":253.2069,"MEAN_ANOMALY":106.7471,"EPHEMERIS_TYPE":0,"CLASSIFICATION_TYPE":"U","NORAD_CAT_ID":40959,"ELEMENT_SET_NO":999,"REV_AT_EPOCH":55976,"BSTAR":0.00021207,"MEAN_MOTION_DOT":1.457e-5,"MEAN_MOTION_DDOT":0},{"OBJECT_NAME":"LINGQIAO VIDEO B","OBJECT_ID":"2015-057C","EPOCH":"2026-03-03T05:02:08.174112","MEAN_MOTION":14.77315665,"ECCENTRICITY":0.0015409,"INCLINATION":97.6571,"RA_OF_ASC_NODE":63.457,"ARG_OF_PERICENTER":253.4221,"MEAN_ANOMALY":106.5298,"EPHEMERIS_TYPE":0,"CLASSIFICATION_TYPE":"U","NORAD_CAT_ID":40960,"ELEMENT_SET_NO":999,"REV_AT_EPOCH":55980,"BSTAR":0.00014187,"MEAN_MOTION_DOT":9.61e-6,"MEAN_MOTION_DDOT":0},{"OBJECT_NAME":"JILIN-1","OBJECT_ID":"2015-057D","EPOCH":"2026-03-03T03:14:14.464896","MEAN_MOTION":14.77978409,"ECCENTRICITY":0.0015583,"INCLINATION":97.6514,"RA_OF_ASC_NODE":66.7826,"ARG_OF_PERICENTER":246.8437,"MEAN_ANOMALY":113.1133,"EPHEMERIS_TYPE":0,"CLASSIFICATION_TYPE":"U","NORAD_CAT_ID":40961,"ELEMENT_SET_NO":999,"REV_AT_EPOCH":55994,"BSTAR":0.00013501,"MEAN_MOTION_DOT":9.27e-6,"MEAN_MOTION_DDOT":0},{"OBJECT_NAME":"FOX-1A (AO-85)","OBJECT_ID":"2015-058D","EPOCH":"2026-03-02T21:10:06.507264","MEAN_MOTION":14.90282691,"ECCENTRICITY":0.0129257,"INCLINATION":64.7735,"RA_OF_ASC_NODE":249.1775,"ARG_OF_PERICENTER":98.6614,"MEAN_ANOMALY":262.9166,"EPHEMERIS_TYPE":0,"CLASSIFICATION_TYPE":"U","NORAD_CAT_ID":40967,"ELEMENT_SET_NO":999,"REV_AT_EPOCH":9772,"BSTAR":0.00042033,"MEAN_MOTION_DOT":4.626e-5,"MEAN_MOTION_DDOT":0}]
