GONETS-M 12             
1 40553U 15020B   26062.20893275  .00000096  00000+0  61957-3 0  9992
2 40553  82.4852  98.1328 0014475 213.7694 146.2465 12.42888211495566
GONETS-M 13             
1 40554U 15020C   26062.18062905 -.00001866  00000+0 -13547-1 0  9996
2 40554  82.4815  96.7965 0013373 196.2106 163.8547 12.42865606495532
DMC3-FM1                
1 40715U 15032A   26062.19501809  .00001478  00000+0  17668-3 0  9997
2 40715  97.6629 291.4336 0006835  51.3141 308.8685 14.85602509574175
DMC3-FM2                
1 40716U 15032B   26062.15001358  .00000997  00000+0  12110-3 0  9990
2 40716  97.6687 292.8911 0007473  55.0097 305.1820 14.85605565574169
DMC3-FM3                
1 40717U 15032C   26062.17305234  .00000398  00000+0  52025-4 0  9998
2 40717  97.6739 294.5974 0006754  55.7156 304.4698 14.85566120574179
CARBONITE 1 (CBNT-1)    
1 40718U 15032D   26062.14504657  .00001258  00000+0  16014-3 0  9999
2 40718  97.6450 244.6939 0013242 284.4089  75.5655 14.83178887573628
DEORBITSAIL             
1 40719U 15032E   26062.10809382  .00009721  00000+0  74218-3 0  9992
2 40719  97.6003 280.9912 0011564 231.9914 128.0267 15.02133414575316
2015-049G               
1 40905U 15049G   26062.12310969  .00036334  00000+0  47391-3 0  9999
2 40905  97.4728 100.3676 0004456 233.8701 126.2143 15.58613001579889
LILACSAT-2              
1 40908U 15049K   26062.17946558  .00019701  00000+0  38164-3 0  9993
2 40908  97.4816  95.1786 0005582 278.2575  81.8042 15.47735618579337
COSMOS 2507 (RODNIK-S *)
1 40920U 15050A   26062.22083019  .00000125  00000+0  82975-3 0  9998
2 40920  82.4958 145.6480 0009451 213.1609 146.8879 12.42923181473697
COSMOS 2508 (RODNIK-S *)
1 40921U 15050B   26062.17473257  .00000126  00000+0  83839-3 0  9991
2 40921  82.4909 144.2229 0013116 251.2473 108.7183 12.42910129473676
COSMOS 2509 (RODNIK-S *)
1 40922U 15050C   26062.19280873  .00000149  00000+0  10025-2 0  9995
2 40922  82.4915 144.3036 0013271 271.4200  88.5359 12.42930505473710
LQSAT                   
1 40958U 15057A   26062.22955616  .00001231  00000+0  18288-3 0  9992
2 40958  97.6652  60.8816 0015522 255.9673 103.9812 14.76622366559673
LINGQIAO VIDEO A        
1 40959U 15057B   26062.22591676  .00001457  00000+0  21207-3 0  9990
2 40959  97.6599  62.2830 0015241 253.2069 106.7471 14.77225734559765
LINGQIAO VIDEO B        
1 40960U 15057C   26062.20981683  .00000961  00000+0  14187-3 0  9999
2 40960  97.6571  63.4570 0015409 253.4221 106.5298 14.77315665559802
JILIN-1                 
1 40961U 15057D   26062.13488964  .00000927  00000+0  13501-3 0  9997
2 40961  97.6514  66.7826 0015583 246.8437 113.1133 14.77978409559946
FOX-1A (AO-85)          
1 40967U 15058D   26061.88201976  .00004626  00000+0  42033-3 0  9993
2 40967  64.7735 249.1775 0129257  98.6614 262.9166 14.90282691 97724
